{
  "type": "FeatureCollection",
  "features": [
    {
      "type": "Feature",
      "properties": {
        "norad_id": 66941,
        "name": "STARLINK-36088",
        "group": "last-30-days",
        "lat": 20.31431842796113,
        "lon": 141.25124869869936,
        "alt_km": 405.01100333277645,
        "timestamp": "2025-12-27T10:28:57.516662+00:00",
        "meta_object_name": "STARLINK-36088",
        "meta_object_id": "2025-286S",
        "meta_epoch": "2025-12-27T04:00:01.998720",
        "meta_mean_motion": 15.54376635,
        "meta_eccentricity": 0.0001327,
        "meta_inclination": 53.1596,
        "meta_ra_of_asc_node": 338.6656,
        "meta_arg_of_pericenter": 80.3388,
        "meta_mean_anomaly": 2.2358,
        "meta_ephemeris_type": 0,
        "meta_classification_type": "U",
        "meta_norad_cat_id": 66941,
        "meta_element_set_no": 999,
        "meta_rev_at_epoch": 430,
        "meta_bstar": -0.034624,
        "meta_mean_motion_dot": -0.02059484,
        "meta_mean_motion_ddot": 0,
        "tle_line1": "1 66941U 25286S   25361.16668980 -.02059484  00000+0 -34624-1 0  9993",
        "tle_line2": "2 66941  53.1596 338.6656 0001327  80.3388   2.2358 15.54376635  4309"
      },
      "geometry": {
        "type": "Point",
        "coordinates": [
          141.25124869869936,
          20.31431842796113
        ]
      }
    },
    {
      "type": "Feature",
      "properties": {
        "norad_id": 66942,
        "name": "STARLINK-36100",
        "group": "last-30-days",
        "lat": 39.74406090510254,
        "lon": 118.85264023476977,
        "alt_km": 407.3618585480035,
        "timestamp": "2025-12-27T10:28:57.516674+00:00",
        "meta_object_name": "STARLINK-36100",
        "meta_object_id": "2025-286T",
        "meta_epoch": "2025-12-27T04:00:01.998720",
        "meta_mean_motion": 15.52355623,
        "meta_eccentricity": 8.56e-05,
        "meta_inclination": 53.1589,
        "meta_ra_of_asc_node": 338.7163,
        "meta_arg_of_pericenter": 98.2053,
        "meta_mean_anomaly": 319.0176,
        "meta_ephemeris_type": 0,
        "meta_classification_type": "U",
        "meta_norad_cat_id": 66942,
        "meta_element_set_no": 999,
        "meta_rev_at_epoch": 424,
        "meta_bstar": -0.035237,
        "meta_mean_motion_dot": -0.01957772,
        "meta_mean_motion_ddot": 0,
        "tle_line1": "1 66942U 25286T   25361.16668980 -.01957772  00000+0 -35237-1 0  9991",
        "tle_line2": "2 66942  53.1589 338.7163 0000856  98.2053 319.0176 15.52355623  4241"
      },
      "geometry": {
        "type": "Point",
        "coordinates": [
          118.85264023476977,
          39.74406090510254
        ]
      }
    },
    {
      "type": "Feature",
      "properties": {
        "norad_id": 66943,
        "name": "STARLINK-36109",
        "group": "last-30-days",
        "lat": 38.52828643152378,
        "lon": 120.7612424446118,
        "alt_km": 407.5175711872198,
        "timestamp": "2025-12-27T10:28:57.516684+00:00",
        "meta_object_name": "STARLINK-36109",
        "meta_object_id": "2025-286U",
        "meta_epoch": "2025-12-27T04:00:01.998720",
        "meta_mean_motion": 15.52349882,
        "meta_eccentricity": 9.27e-05,
        "meta_inclination": 53.1591,
        "meta_ra_of_asc_node": 338.7117,
        "meta_arg_of_pericenter": 98.8361,
        "meta_mean_anomaly": 320.3046,
        "meta_ephemeris_type": 0,
        "meta_classification_type": "U",
        "meta_norad_cat_id": 66943,
        "meta_element_set_no": 999,
        "meta_rev_at_epoch": 424,
        "meta_bstar": -0.035063,
        "meta_mean_motion_dot": -0.01948768,
        "meta_mean_motion_ddot": 0,
        "tle_line1": "1 66943U 25286U   25361.16668980 -.01948768  00000+0 -35063-1 0  9994",
        "tle_line2": "2 66943  53.1591 338.7117 0000927  98.8361 320.3046 15.52349882  4242"
      },
      "geometry": {
        "type": "Point",
        "coordinates": [
          120.7612424446118,
          38.52828643152378
        ]
      }
    },
    {
      "type": "Feature",
      "properties": {
        "norad_id": 66944,
        "name": "STARLINK-36112",
        "group": "last-30-days",
        "lat": 37.28410971757172,
        "lon": 122.60331033177134,
        "alt_km": 407.65356045417957,
        "timestamp": "2025-12-27T10:28:57.516696+00:00",
        "meta_object_name": "STARLINK-36112",
        "meta_object_id": "2025-286V",
        "meta_epoch": "2025-12-27T04:00:01.998720",
        "meta_mean_motion": 15.52336007,
        "meta_eccentricity": 9.63e-05,
        "meta_inclination": 53.159,
        "meta_ra_of_asc_node": 338.7078,
        "meta_arg_of_pericenter": 105.0704,
        "meta_mean_anomaly": 315.9883,
        "meta_ephemeris_type": 0,
        "meta_classification_type": "U",
        "meta_norad_cat_id": 66944,
        "meta_element_set_no": 999,
        "meta_rev_at_epoch": 430,
        "meta_bstar": -0.0345,
        "meta_mean_motion_dot": -0.01885966,
        "meta_mean_motion_ddot": 0,
        "tle_line1": "1 66944U 25286V   25361.16668980 -.01885966  00000+0 -34500-1 0  9990",
        "tle_line2": "2 66944  53.1590 338.7078 0000963 105.0704 315.9883 15.52336007  4301"
      },
      "geometry": {
        "type": "Point",
        "coordinates": [
          122.60331033177134,
          37.28410971757172
        ]
      }
    },
    {
      "type": "Feature",
      "properties": {
        "norad_id": 66945,
        "name": "STARLINK-36110",
        "group": "last-30-days",
        "lat": 36.009710142782005,
        "lon": 124.38790309375553,
        "alt_km": 407.87396282311784,
        "timestamp": "2025-12-27T10:28:57.516706+00:00",
        "meta_object_name": "STARLINK-36110",
        "meta_object_id": "2025-286W",
        "meta_epoch": "2025-12-27T04:00:01.998720",
        "meta_mean_motion": 15.52342832,
        "meta_eccentricity": 9.22e-05,
        "meta_inclination": 53.1592,
        "meta_ra_of_asc_node": 338.7033,
        "meta_arg_of_pericenter": 111.1444,
        "meta_mean_anomaly": 311.8315,
        "meta_ephemeris_type": 0,
        "meta_classification_type": "U",
        "meta_norad_cat_id": 66945,
        "meta_element_set_no": 999,
        "meta_rev_at_epoch": 431,
        "meta_bstar": -0.034855,
        "meta_mean_motion_dot": -0.0193797,
        "meta_mean_motion_ddot": 0,
        "tle_line1": "1 66945U 25286W   25361.16668980 -.01937970  00000+0 -34855-1 0  9997",
        "tle_line2": "2 66945  53.1592 338.7033 0000922 111.1444 311.8315 15.52342832  4318"
      },
      "geometry": {
        "type": "Point",
        "coordinates": [
          124.38790309375553,
          36.009710142782005
        ]
      }
    },
    {
      "type": "Feature",
      "properties": {
        "norad_id": 66946,
        "name": "STARLINK-36115",
        "group": "last-30-days",
        "lat": 34.70850508639929,
        "lon": 126.11761009877554,
        "alt_km": 408.00154605250555,
        "timestamp": "2025-12-27T10:28:57.516716+00:00",
        "meta_object_name": "STARLINK-36115",
        "meta_object_id": "2025-286X",
        "meta_epoch": "2025-12-27T04:00:01.998720",
        "meta_mean_motion": 15.52331965,
        "meta_eccentricity": 0.0001064,
        "meta_inclination": 53.1594,
        "meta_ra_of_asc_node": 338.7,
        "meta_arg_of_pericenter": 113.9867,
        "meta_mean_anomaly": 310.9089,
        "meta_ephemeris_type": 0,
        "meta_classification_type": "U",
        "meta_norad_cat_id": 66946,
        "meta_element_set_no": 999,
        "meta_rev_at_epoch": 430,
        "meta_bstar": -0.034394,
        "meta_mean_motion_dot": -0.01880662,
        "meta_mean_motion_ddot": 0,
        "tle_line1": "1 66946U 25286X   25361.16668980 -.01880662  00000+0 -34394-1 0  9991",
        "tle_line2": "2 66946  53.1594 338.7000 0001064 113.9867 310.9089 15.52331965  4304"
      },
      "geometry": {
        "type": "Point",
        "coordinates": [
          126.11761009877554,
          34.70850508639929
        ]
      }
    },
    {
      "type": "Feature",
      "properties": {
        "norad_id": 66947,
        "name": "STARLINK-36089",
        "group": "last-30-days",
        "lat": 32.03929683388779,
        "lon": 129.4127459110198,
        "alt_km": 408.4395636107438,
        "timestamp": "2025-12-27T10:28:57.516726+00:00",
        "meta_object_name": "STARLINK-36089",
        "meta_object_id": "2025-286Y",
        "meta_epoch": "2025-12-27T04:00:01.998720",
        "meta_mean_motion": 15.5233331,
        "meta_eccentricity": 0.0001089,
        "meta_inclination": 53.1595,
        "meta_ra_of_asc_node": 338.6918,
        "meta_arg_of_pericenter": 113.7687,
        "meta_mean_anomaly": 314.9589,
        "meta_ephemeris_type": 0,
        "meta_classification_type": "U",
        "meta_norad_cat_id": 66947,
        "meta_element_set_no": 999,
        "meta_rev_at_epoch": 430,
        "meta_bstar": -0.034443,
        "meta_mean_motion_dot": -0.01883101,
        "meta_mean_motion_ddot": 0,
        "tle_line1": "1 66947U 25286Y   25361.16668980 -.01883101  00000+0 -34443-1 0  9998",
        "tle_line2": "2 66947  53.1595 338.6918 0001089 113.7687 314.9589 15.52333310  4303"
      },
      "geometry": {
        "type": "Point",
        "coordinates": [
          129.4127459110198,
          32.03929683388779
        ]
      }
    }
  ]
}